SDA-1676                
1 65986U 25230N   25304.25369967  .00000348  00000+0  29950-3 0  9999
2 65986  81.3016  64.0178 0002934  65.5451 294.6012 13.84574042  2122
SDA-1677                
1 65987U 25230P   25304.25275385  .00000335  00000+0  28731-3 0  9992
2 65987  81.2989  64.0133 0003274  70.6382 289.5128 13.84659664  2125
SDA-1678                
1 65988U 25230Q   25304.31563167  .00000297  00000+0  25045-3 0  9990
2 65988  81.3023  63.9407 0005022 119.6667 240.4991 13.85509036  2134
SDA-1679                
1 65989U 25230R   25304.31785737  .00000246  00000+0  20625-3 0  9993
2 65989  81.3020  63.9445 0005134 108.1181 252.0535 13.85308026  2131
SDA-1680                
1 65990U 25230S   25304.24696754  .00000360  00000+0  30672-3 0  9997
2 65990  81.3011  64.0084 0005052 101.4152 258.7573 13.85186686  2127
SDA-1681                
1 65991U 25230T   25304.31831417  .00000281  00000+0  23713-3 0  9993
2 65991  81.3009  63.9383 0005153 106.3155 253.8570 13.85266316  2137
SDA-1682                
1 65992U 25230U   25304.25086756  .00000287  00000+0  24412-3 0  9998
2 65992  81.3036  64.0176 0003834  80.5214 279.6376 13.84831931  2122
SDA-1683                
1 65993U 25230V   25304.24998467  .00000376  00000+0  32226-3 0  9990
2 65993  81.3027  64.0146 0004164  83.5556 276.6075 13.84912181  2129
SDA-1684                
1 65994U 25230W   25304.25157733  .00000325  00000+0  27800-3 0  9991
2 65994  81.3010  64.0142 0003935  71.1542 289.0042 13.84767190  2121
HULIANWANG DIGUI 12A    
1 65995U 25231A   25304.26099970  .00000085  00000+0  14934-3 0  9999
2 65995  50.0006 295.8396 0006448 306.2329  53.7979 14.03846877  2141
HULIANWANG DIGUI 12B    
1 65996U 25231B   25304.26385552  .00000085  00000+0  14924-3 0  9993
2 65996  49.9994 295.8534 0009015 311.6146  48.3985 14.03877859  2140
HULIANWANG DIGUI 12C    
1 65997U 25231C   25304.25993090  .00000082  00000+0  14709-3 0  9993
2 65997  49.9971 295.8278 0007561 310.9815  49.0435 14.03881413  2149
