CCSDS_OMM_VERS = 2.0
CREATION_DATE  = 
ORIGINATOR     = 

OBJECT_NAME    = SDA-1676
OBJECT_ID      = 2025-230N
CENTER_NAME    = EARTH
REF_FRAME      = TEME
TIME_SYSTEM    = UTC
MEAN_ELEMENT_THEORY = SGP/SGP4

EPOCH          = 2025-10-31T06:05:19.651488
MEAN_MOTION    = 13.84574042
ECCENTRICITY   = .00029349
INCLINATION    = 81.3016
RA_OF_ASC_NODE = 64.0178
ARG_OF_PERICENTER = 65.5451
MEAN_ANOMALY   = 294.6012

EPHEMERIS_TYPE = 0
CLASSIFICATION_TYPE = U
NORAD_CAT_ID   = 65986
ELEMENT_SET_NO = 999
REV_AT_EPOCH   = 212
BSTAR          = .29949589E-3
MEAN_MOTION_DOT = .348E-5
MEAN_MOTION_DDOT = 0

CCSDS_OMM_VERS = 2.0
CREATION_DATE  = 
ORIGINATOR     = 

OBJECT_NAME    = SDA-1677
OBJECT_ID      = 2025-230P
CENTER_NAME    = EARTH
REF_FRAME      = TEME
TIME_SYSTEM    = UTC
MEAN_ELEMENT_THEORY = SGP/SGP4

EPOCH          = 2025-10-31T06:03:57.932640
MEAN_MOTION    = 13.84659664
ECCENTRICITY   = .00032743
INCLINATION    = 81.2989
RA_OF_ASC_NODE = 64.0133
ARG_OF_PERICENTER = 70.6382
MEAN_ANOMALY   = 289.5128

EPHEMERIS_TYPE = 0
CLASSIFICATION_TYPE = U
NORAD_CAT_ID   = 65987
ELEMENT_SET_NO = 999
REV_AT_EPOCH   = 212
BSTAR          = .28731196E-3
MEAN_MOTION_DOT = .335E-5
MEAN_MOTION_DDOT = 0

CCSDS_OMM_VERS = 2.0
CREATION_DATE  = 
ORIGINATOR     = 

OBJECT_NAME    = SDA-1678
OBJECT_ID      = 2025-230Q
CENTER_NAME    = EARTH
REF_FRAME      = TEME
TIME_SYSTEM    = UTC
MEAN_ELEMENT_THEORY = SGP/SGP4

EPOCH          = 2025-10-31T07:34:30.576288
MEAN_MOTION    = 13.85509036
ECCENTRICITY   = .00050223
INCLINATION    = 81.3023
RA_OF_ASC_NODE = 63.9407
ARG_OF_PERICENTER = 119.6667
MEAN_ANOMALY   = 240.4991

EPHEMERIS_TYPE = 0
CLASSIFICATION_TYPE = U
NORAD_CAT_ID   = 65988
ELEMENT_SET_NO = 999
REV_AT_EPOCH   = 213
BSTAR          = .25045237E-3
MEAN_MOTION_DOT = .297E-5
MEAN_MOTION_DDOT = 0

CCSDS_OMM_VERS = 2.0
CREATION_DATE  = 
ORIGINATOR     = 

OBJECT_NAME    = SDA-1679
OBJECT_ID      = 2025-230R
CENTER_NAME    = EARTH
REF_FRAME      = TEME
TIME_SYSTEM    = UTC
MEAN_ELEMENT_THEORY = SGP/SGP4

EPOCH          = 2025-10-31T07:37:42.876768
MEAN_MOTION    = 13.85308026
ECCENTRICITY   = .00051342
INCLINATION    = 81.3020
RA_OF_ASC_NODE = 63.9445
ARG_OF_PERICENTER = 108.1181
MEAN_ANOMALY   = 252.0535

EPHEMERIS_TYPE = 0
CLASSIFICATION_TYPE = U
NORAD_CAT_ID   = 65989
ELEMENT_SET_NO = 999
REV_AT_EPOCH   = 213
BSTAR          = .20624643E-3
MEAN_MOTION_DOT = .246E-5
MEAN_MOTION_DDOT = 0

CCSDS_OMM_VERS = 2.0
CREATION_DATE  = 
ORIGINATOR     = 

OBJECT_NAME    = SDA-1680
OBJECT_ID      = 2025-230S
CENTER_NAME    = EARTH
REF_FRAME      = TEME
TIME_SYSTEM    = UTC
MEAN_ELEMENT_THEORY = SGP/SGP4

EPOCH          = 2025-10-31T05:55:37.995456
MEAN_MOTION    = 13.85186686
ECCENTRICITY   = .00050529
INCLINATION    = 81.3011
RA_OF_ASC_NODE = 64.0084
ARG_OF_PERICENTER = 101.4152
MEAN_ANOMALY   = 258.7573

EPHEMERIS_TYPE = 0
CLASSIFICATION_TYPE = U
NORAD_CAT_ID   = 65990
ELEMENT_SET_NO = 999
REV_AT_EPOCH   = 212
BSTAR          = .30671905E-3
MEAN_MOTION_DOT = .36E-5
MEAN_MOTION_DDOT = 0

CCSDS_OMM_VERS = 2.0
CREATION_DATE  = 
ORIGINATOR     = 

OBJECT_NAME    = SDA-1681
OBJECT_ID      = 2025-230T
CENTER_NAME    = EARTH
REF_FRAME      = TEME
TIME_SYSTEM    = UTC
MEAN_ELEMENT_THEORY = SGP/SGP4

EPOCH          = 2025-10-31T07:38:22.344288
MEAN_MOTION    = 13.85266316
ECCENTRICITY   = .0005153
INCLINATION    = 81.3009
RA_OF_ASC_NODE = 63.9383
ARG_OF_PERICENTER = 106.3155
MEAN_ANOMALY   = 253.8570

EPHEMERIS_TYPE = 0
CLASSIFICATION_TYPE = U
NORAD_CAT_ID   = 65991
ELEMENT_SET_NO = 999
REV_AT_EPOCH   = 213
BSTAR          = .23713436E-3
MEAN_MOTION_DOT = .281E-5
MEAN_MOTION_DDOT = 0

CCSDS_OMM_VERS = 2.0
CREATION_DATE  = 
ORIGINATOR     = 

OBJECT_NAME    = SDA-1682
OBJECT_ID      = 2025-230U
CENTER_NAME    = EARTH
REF_FRAME      = TEME
TIME_SYSTEM    = UTC
MEAN_ELEMENT_THEORY = SGP/SGP4

EPOCH          = 2025-10-31T06:01:14.957184
MEAN_MOTION    = 13.84831931
ECCENTRICITY   = .00038341
INCLINATION    = 81.3036
RA_OF_ASC_NODE = 64.0176
ARG_OF_PERICENTER = 80.5214
MEAN_ANOMALY   = 279.6376

EPHEMERIS_TYPE = 0
CLASSIFICATION_TYPE = U
NORAD_CAT_ID   = 65992
ELEMENT_SET_NO = 999
REV_AT_EPOCH   = 212
BSTAR          = .24412479E-3
MEAN_MOTION_DOT = .287E-5
MEAN_MOTION_DDOT = 0

CCSDS_OMM_VERS = 2.0
CREATION_DATE  = 
ORIGINATOR     = 

OBJECT_NAME    = SDA-1683
OBJECT_ID      = 2025-230V
CENTER_NAME    = EARTH
REF_FRAME      = TEME
TIME_SYSTEM    = UTC
MEAN_ELEMENT_THEORY = SGP/SGP4

EPOCH          = 2025-10-31T05:59:58.675488
MEAN_MOTION    = 13.84912181
ECCENTRICITY   = .0004164
INCLINATION    = 81.3027
RA_OF_ASC_NODE = 64.0146
ARG_OF_PERICENTER = 83.5556
MEAN_ANOMALY   = 276.6075

EPHEMERIS_TYPE = 0
CLASSIFICATION_TYPE = U
NORAD_CAT_ID   = 65993
ELEMENT_SET_NO = 999
REV_AT_EPOCH   = 212
BSTAR          = .32226311E-3
MEAN_MOTION_DOT = .376E-5
MEAN_MOTION_DDOT = 0

CCSDS_OMM_VERS = 2.0
CREATION_DATE  = 
ORIGINATOR     = 

OBJECT_NAME    = SDA-1684
OBJECT_ID      = 2025-230W
CENTER_NAME    = EARTH
REF_FRAME      = TEME
TIME_SYSTEM    = UTC
MEAN_ELEMENT_THEORY = SGP/SGP4

EPOCH          = 2025-10-31T06:02:16.281312
MEAN_MOTION    = 13.84767190
ECCENTRICITY   = .00039354
INCLINATION    = 81.3010
RA_OF_ASC_NODE = 64.0142
ARG_OF_PERICENTER = 71.1542
MEAN_ANOMALY   = 289.0042

EPHEMERIS_TYPE = 0
CLASSIFICATION_TYPE = U
NORAD_CAT_ID   = 65994
ELEMENT_SET_NO = 999
REV_AT_EPOCH   = 212
BSTAR          = .27799612E-3
MEAN_MOTION_DOT = .325E-5
MEAN_MOTION_DDOT = 0

CCSDS_OMM_VERS = 2.0
CREATION_DATE  = 
ORIGINATOR     = 

OBJECT_NAME    = HULIANWANG DIGUI 12A
OBJECT_ID      = 2025-231A
CENTER_NAME    = EARTH
REF_FRAME      = TEME
TIME_SYSTEM    = UTC
MEAN_ELEMENT_THEORY = SGP/SGP4

EPOCH          = 2025-10-31T06:15:50.374080
MEAN_MOTION    = 14.03846877
ECCENTRICITY   = .00064484
INCLINATION    = 50.0006
RA_OF_ASC_NODE = 295.8396
ARG_OF_PERICENTER = 306.2329
MEAN_ANOMALY   = 53.7979

EPHEMERIS_TYPE = 0
CLASSIFICATION_TYPE = U
NORAD_CAT_ID   = 65995
ELEMENT_SET_NO = 999
REV_AT_EPOCH   = 214
BSTAR          = .14933817E-3
MEAN_MOTION_DOT = .85E-6
MEAN_MOTION_DDOT = 0

CCSDS_OMM_VERS = 2.0
CREATION_DATE  = 
ORIGINATOR     = 

OBJECT_NAME    = HULIANWANG DIGUI 12B
OBJECT_ID      = 2025-231B
CENTER_NAME    = EARTH
REF_FRAME      = TEME
TIME_SYSTEM    = UTC
MEAN_ELEMENT_THEORY = SGP/SGP4

EPOCH          = 2025-10-31T06:19:57.116928
MEAN_MOTION    = 14.03877859
ECCENTRICITY   = .00090153
INCLINATION    = 49.9994
RA_OF_ASC_NODE = 295.8534
ARG_OF_PERICENTER = 311.6146
MEAN_ANOMALY   = 48.3985

EPHEMERIS_TYPE = 0
CLASSIFICATION_TYPE = U
NORAD_CAT_ID   = 65996
ELEMENT_SET_NO = 999
REV_AT_EPOCH   = 214
BSTAR          = .14924454E-3
MEAN_MOTION_DOT = .85E-6
MEAN_MOTION_DDOT = 0

CCSDS_OMM_VERS = 2.0
CREATION_DATE  = 
ORIGINATOR     = 

OBJECT_NAME    = HULIANWANG DIGUI 12C
OBJECT_ID      = 2025-231C
CENTER_NAME    = EARTH
REF_FRAME      = TEME
TIME_SYSTEM    = UTC
MEAN_ELEMENT_THEORY = SGP/SGP4

EPOCH          = 2025-10-31T06:14:18.029760
MEAN_MOTION    = 14.03881413
ECCENTRICITY   = .00075611
INCLINATION    = 49.9971
RA_OF_ASC_NODE = 295.8278
ARG_OF_PERICENTER = 310.9815
MEAN_ANOMALY   = 49.0435

EPHEMERIS_TYPE = 0
CLASSIFICATION_TYPE = U
NORAD_CAT_ID   = 65997
ELEMENT_SET_NO = 999
REV_AT_EPOCH   = 214
BSTAR          = .14709324E-3
MEAN_MOTION_DOT = .82E-6
MEAN_MOTION_DDOT = 0

